{"type":"FeatureCollection","features":[{"type":"Feature","properties":{"title":"title","description":"description","marker-symbol":"mappin_white"},"geometry":{"type":"Point","coordinates":[135.490805,34.730322]}},{"type":"Feature","properties":{"stroke":"#0066FF","stroke-width":0.5,"title":"stroke-width:0.5","description":"description"},"geometry":{"type":"LineString","coordinates":[[135.49003,34.729261],[135.497455,34.731676],[135.497455,34.731676]]}},{"type":"Feature","properties":{"title":"stroke-width:2.0","description":"description","stroke":"#D0F76F","stroke-width":2},"geometry":{"type":"LineString","coordinates":[[135.490328,34.728739],[135.497634,34.731088]]}},{"type":"Feature","properties":{"title":"title","description":"description","stroke":"#0066FF","stroke-width":3,"fill":"#7e7e7e","fill-opacity":1},"geometry":{"type":"Polygon","coordinates":[[[135.49009,34.72789],[135.49009,34.726667],[135.497892,34.726667],[135.497892,34.72789],[135.49009,34.72789]]]}},{"type":"Feature","properties":{"title":"title","description":"description","stroke":"#7e7e7e","stroke-width":0.5,"fill":"#D0F76F","fill-opacity":0.3},"geometry":{"type":"Polygon","coordinates":[[[135.490053,34.725888],[135.490053,34.724625],[135.498012,34.724625],[135.498012,34.725888],[135.490053,34.725888]]]}}]}